{
    "links": {
        "self": "http://www.neowsapp.com/rest/v1/neo/3781865?api_key=iIulBulltgU6a56xZRHN4H3l9WmuAYTsLGpBGhQ2"
    },
    "id": "3781865",
    "neo_reference_id": "3781865",
    "name": "(2017 SZ13)",
    "designation": "2017 SZ13",
    "nasa_jpl_url": "http://ssd.jpl.nasa.gov/sbdb.cgi?sstr=3781865",
    "absolute_magnitude_h": 25.3,
    "estimated_diameter": {
        "kilometers": {
            "estimated_diameter_min": 0.0231502122,
            "estimated_diameter_max": 0.0517654482
        },
        "meters": {
            "estimated_diameter_min": 23.150212221,
            "estimated_diameter_max": 51.7654482198
        },
        "miles": {
            "estimated_diameter_min": 0.0143848705,
            "estimated_diameter_max": 0.0321655483
        },
        "feet": {
            "estimated_diameter_min": 75.9521422633,
            "estimated_diameter_max": 169.8341531374
        }
    },
    "is_potentially_hazardous_asteroid": false,
    "close_approach_data": [
        {
            "close_approach_date": "2017-09-18",
            "close_approach_date_full": "2017-Sep-18 02:38",
            "epoch_date_close_approach": 1505702280000,
            "relative_velocity": {
                "kilometers_per_second": "10.1782652284",
                "kilometers_per_hour": "36641.7548220776",
                "miles_per_hour": "22767.7614893071"
            },
            "miss_distance": {
                "astronomical": "0.0676299955",
                "lunar": "26.3080682495",
                "kilometers": "10117303.274909585",
                "miles": "6286600.741478873"
            },
            "orbiting_body": "Earth"
        }
    ],
    "orbital_data": {
        "orbit_id": "3",
        "orbit_determination_date": "2019-07-17 06:12:11",
        "first_observation_date": "2017-09-24",
        "last_observation_date": "2017-09-27",
        "data_arc_in_days": 3,
        "observations_used": 15,
        "orbit_uncertainty": "9",
        "minimum_orbit_intersection": ".062127",
        "jupiter_tisserand_invariant": "3.070",
        "epoch_osculation": "2458021.5",
        "eccentricity": ".5994225544201195",
        "semi_major_axis": "2.661421085239547",
        "inclination": "13.2082700829186",
        "ascending_node_longitude": "350.5999673322296",
        "orbital_period": "1585.874503053506",
        "perihelion_distance": "1.066105259937691",
        "perihelion_argument": "6.459491372384589",
        "aphelion_distance": "4.256736910541402",
        "perihelion_time": "2458017.386772328964",
        "mean_anomaly": ".9337195085246919",
        "mean_motion": ".2270040909963818",
        "equinox": "J2000",
        "orbit_class": {
            "orbit_class_type": "AMO",
            "orbit_class_description": "Near-Earth asteroid orbits similar to that of 1221 Amor",
            "orbit_class_range": "1.017 AU < q (perihelion) < 1.3 AU"
        }
    },
    "is_sentry_object": false
}